{
    "links": {
        "self": "http://www.neowsapp.com/rest/v1/neo/3389469?api_key=iIulBulltgU6a56xZRHN4H3l9WmuAYTsLGpBGhQ2"
    },
    "id": "3389469",
    "neo_reference_id": "3389469",
    "name": "(2007 UG6)",
    "designation": "2007 UG6",
    "nasa_jpl_url": "http://ssd.jpl.nasa.gov/sbdb.cgi?sstr=3389469",
    "absolute_magnitude_h": 23.0,
    "estimated_diameter": {
        "kilometers": {
            "estimated_diameter_min": 0.0667659413,
            "estimated_diameter_max": 0.1492931834
        },
        "meters": {
            "estimated_diameter_min": 66.7659413495,
            "estimated_diameter_max": 149.2931834393
        },
        "miles": {
            "estimated_diameter_min": 0.0414864197,
            "estimated_diameter_max": 0.0927664547
        },
        "feet": {
            "estimated_diameter_min": 219.0483710172,
            "estimated_diameter_max": 489.807047955
        }
    },
    "is_potentially_hazardous_asteroid": false,
    "close_approach_data": [
        {
            "close_approach_date": "2007-11-01",
            "close_approach_date_full": "2007-Nov-01 02:38",
            "epoch_date_close_approach": 1193884680000,
            "relative_velocity": {
                "kilometers_per_second": "10.0012534444",
                "kilometers_per_hour": "36004.5124000049",
                "miles_per_hour": "22371.8038298808"
            },
            "miss_distance": {
                "astronomical": "0.0706608256",
                "lunar": "27.4870611584",
                "kilometers": "10570709.002201472",
                "miles": "6568333.9962734336"
            },
            "orbiting_body": "Earth"
        }
    ],
    "orbital_data": {
        "orbit_id": "11",
        "orbit_determination_date": "2017-04-06 09:05:31",
        "first_observation_date": "2007-10-21",
        "last_observation_date": "2007-11-08",
        "data_arc_in_days": 18,
        "observations_used": 42,
        "orbit_uncertainty": "8",
        "minimum_orbit_intersection": ".0702464",
        "jupiter_tisserand_invariant": "3.818",
        "epoch_osculation": "2454399.5",
        "eccentricity": ".4390905671399173",
        "semi_major_axis": "1.872914750927035",
        "inclination": "15.3301064005218",
        "ascending_node_longitude": "215.3946461264567",
        "orbital_period": "936.2146701179595",
        "perihelion_distance": "1.050535550737766",
        "perihelion_argument": "197.920460766637",
        "aphelion_distance": "2.695293951116303",
        "perihelion_time": "2454418.916717938413",
        "mean_anomaly": "352.5337439361552",
        "mean_motion": ".3845271939123122",
        "equinox": "J2000",
        "orbit_class": {
            "orbit_class_type": "AMO",
            "orbit_class_description": "Near-Earth asteroid orbits similar to that of 1221 Amor",
            "orbit_class_range": "1.017 AU < q (perihelion) < 1.3 AU"
        }
    },
    "is_sentry_object": false
}